ORBCOMM FM33            
1 25983U 99065D   25168.78656350  .00000742  00000+0  27834-3 0  9997
2 25983  45.0299 356.1085 0008520  69.6530 290.5234 14.40002790336228
ORBCOMM FM36            
1 25984U 99065E   25168.47444505  .00000868  00000+0  33026-3 0  9990
2 25984  45.0394  89.5324 0004455 316.4322  43.6175 14.38124149335054
ORBCOMM FM35            
1 25985U 99065F   25168.17629108  .00000793  00000+0  31210-3 0  9992
2 25985  45.0394  95.9788 0004613  17.4431 342.6575 14.37095362334974
ORBCOMM FM34            
1 25986U 99065G   25168.14228695  .00000737  00000+0  29318-3 0  9990
2 25986  45.0389  96.6083 0005455 340.0587  20.0047 14.37119415334930
ORBCOMM FM38            
1 33060U 08031A   25168.68444010  .00001528  00000+0  22088-3 0  9991
2 33060  48.4418 312.8779 0004387  37.4627 322.6593 14.81328843914816
ORBCOMM FM41            
1 33061U 08031B   25168.49361508  .00001429  00000+0  21027-3 0  9993
2 33061  48.4454 321.5668 0003773  18.2214  25.6489 14.80912583914721
ORBCOMM FM29            
1 33062U 08031C   25168.74207512  .00001541  00000+0  22413-3 0  9991
2 33062  48.4406 328.1928 0005429  21.3059 352.3490 14.81015254914613
ORBCOMM FM39            
1 33063U 08031D   25168.23061222  .00001281  00000+0  19733-3 0  9994
2 33063  48.4421 354.9017 0006688 351.5419   8.5382 14.79566595914226
